[{"OBJECT_NAME":"TIANQI-6","OBJECT_ID":"2020-076D","EPOCH":"2026-03-09T22:50:24.728640","MEAN_MOTION":15.06417552,"ECCENTRICITY":0.00106023,"INCLINATION":34.9994,"RA_OF_ASC_NODE":297.1791,"ARG_OF_PERICENTER":9.4595,"MEAN_ANOMALY":350.6312,"EPHEMERIS_TYPE":0,"CLASSIFICATION_TYPE":"U","NORAD_CAT_ID":46810,"ELEMENT_SET_NO":999,"REV_AT_EPOCH":29360,"BSTAR":0.00037023286,"MEAN_MOTION_DOT":5.552e-5,"MEAN_MOTION_DDOT":0},{"OBJECT_NAME":"STARLINK-4268","OBJECT_ID":"2022-083BD","EPOCH":"2026-03-09T11:07:28.036416","MEAN_MOTION":15.08833641,"ECCENTRICITY":0.00014905,"INCLINATION":53.2166,"RA_OF_ASC_NODE":130.0462,"ARG_OF_PERICENTER":87.0971,"MEAN_ANOMALY":273.0192,"EPHEMERIS_TYPE":0,"CLASSIFICATION_TYPE":"U","NORAD_CAT_ID":53183,"ELEMENT_SET_NO":999,"REV_AT_EPOCH":20180,"BSTAR":-1.6449205e-5,"MEAN_MOTION_DOT":-5.5e-6,"MEAN_MOTION_DDOT":0}]
